[{"OBJECT_NAME":"OBJECT E","OBJECT_ID":"2024-105E","EPOCH":"2026-03-10T00:03:44.143200","MEAN_MOTION":15.19028023,"ECCENTRICITY":0.00116899,"INCLINATION":97.5872,"RA_OF_ASC_NODE":85.441,"ARG_OF_PERICENTER":201.8034,"MEAN_ANOMALY":158.2704,"EPHEMERIS_TYPE":0,"CLASSIFICATION_TYPE":"U","NORAD_CAT_ID":59921,"ELEMENT_SET_NO":999,"REV_AT_EPOCH":9809,"BSTAR":0.00030074401,"MEAN_MOTION_DOT":6.239e-5,"MEAN_MOTION_DDOT":0},{"OBJECT_NAME":"STARLINK-36259","OBJECT_ID":"2025-299E","EPOCH":"2026-03-09T22:00:01.999584","MEAN_MOTION":15.37963448,"ECCENTRICITY":0.00013295,"INCLINATION":43.0007,"RA_OF_ASC_NODE":167.5121,"ARG_OF_PERICENTER":271.8286,"MEAN_ANOMALY":77.0727,"EPHEMERIS_TYPE":0,"CLASSIFICATION_TYPE":"U","NORAD_CAT_ID":67106,"ELEMENT_SET_NO":999,"REV_AT_EPOCH":590,"BSTAR":-0.06132752,"MEAN_MOTION_DOT":-0.02109639,"MEAN_MOTION_DDOT":0}]
